{
  "type": "FeatureCollection",
  "name": "Cybermancy player-safe Puget Sound regions",
  "features": [
    {
      "type": "Feature",
      "id": 101,
      "properties": {
        "name": "Seattle",
        "code": "SEA // CITY-STATE",
        "category": "CITY-STATE",
        "color": "#31d7e6",
        "legend_order": 1,
        "status": "Corporate metropolis",
        "known_for": "Council arcologies and protected infrastructure",
        "access": "Guarded roads, ferries, and controlled airspace",
        "description": "Seattle survived because it remained useful enough to save. Its brilliant corporate core is surrounded by districts preserved through municipal inertia, neighborhood cohesion, local power, or luck.",
        "label_coordinates": [
          -122.34,
          47.6
        ],
        "image_asset": "images/locations/region-seattle.webp"
      },
      "geometry": {
        "type": "Polygon",
        "coordinates": [
          [
            [
              -122.47,
              47.74
            ],
            [
              -122.29,
              47.75
            ],
            [
              -122.245,
              47.73
            ],
            [
              -122.255,
              47.68
            ],
            [
              -122.275,
              47.62
            ],
            [
              -122.285,
              47.57
            ],
            [
              -122.25,
              47.5
            ],
            [
              -122.32,
              47.44
            ],
            [
              -122.43,
              47.48
            ],
            [
              -122.47,
              47.74
            ]
          ]
        ]
      }
    },
    {
      "type": "Feature",
      "id": 102,
      "properties": {
        "name": "Everett Bastion",
        "code": "EVR // INDUSTRIAL",
        "category": "INDEPENDENT CITY-STATE",
        "color": "#78a9ff",
        "legend_order": 2,
        "status": "Northern industrial power",
        "known_for": "Aerospace, heavy fabrication, and guarded port facilities",
        "access": "Protected I-5 commerce corridor",
        "description": "Everett's aerospace factories, port infrastructure, and former naval presence gave it enough industrial capacity to remain viable and politically distinct from Seattle.",
        "label_coordinates": [
          -122.2,
          47.95
        ],
        "image_asset": "images/locations/region-everett-bastion.webp"
      },
      "geometry": {
        "type": "Polygon",
        "coordinates": [
          [
            [
              -122.34,
              48.1
            ],
            [
              -122.1,
              48.1
            ],
            [
              -122.055,
              47.93
            ],
            [
              -122.14,
              47.79
            ],
            [
              -122.29,
              47.79
            ],
            [
              -122.36,
              47.92
            ],
            [
              -122.34,
              48.1
            ]
          ]
        ]
      }
    },
    {
      "type": "Feature",
      "id": 103,
      "properties": {
        "name": "Tacoma",
        "code": "TAC // EPHORATE",
        "category": "DE FACTO INDEPENDENT STATE",
        "color": "#e76ab7",
        "legend_order": 3,
        "status": "Metahuman-led military republic in an armed cessation with Seattle",
        "known_for": "Deepwater shipping, military service citizenship, logistics, and political independence",
        "access": "The Port of Tacoma, through traffic on I-5, and a porous defensive zone near Fife and Milton",
        "governance": "The Tacoma Ephorate, or the Five, divides authority among ground defense, harbor and naval forces, intelligence, logistics and infrastructure, and civil defense",
        "communities": "Citizens who earned status through military service, non-citizen residents, veterans, port workers, and metahuman families",
        "organizations": "Tacoma Ephorate, Black Helix, Empty Seats, and the port authorities",
        "connections": "International deepwater trade, Black Helix convoy security, and guarded commerce with Seattle along I-5",
        "description": "Tacoma is a de facto independent metahuman state organized around military service and control of the region's primary deepwater port. Seattle refuses formal recognition, but commerce and mutual dependence sustain an armed cessation rather than a peace treaty.",
        "label_coordinates": [
          -122.44,
          47.24
        ],
        "image_asset": "images/locations/region-tacoma.webp"
      },
      "geometry": {
        "type": "Polygon",
        "coordinates": [
          [
            [
              -122.63,
              47.39
            ],
            [
              -122.35,
              47.4
            ],
            [
              -122.23,
              47.28
            ],
            [
              -122.28,
              47.11
            ],
            [
              -122.55,
              47.1
            ],
            [
              -122.65,
              47.22
            ],
            [
              -122.63,
              47.39
            ]
          ]
        ]
      }
    },
    {
      "type": "Feature",
      "id": 104,
      "properties": {
        "name": "Silicon Wilds",
        "code": "RED // WILD NET",
        "category": "RECLAIMED TECHNOLOGY ZONE",
        "color": "#76e36f",
        "legend_order": 4,
        "status": "Eastside frontier of independent settlements, ruins, and salvage zones",
        "known_for": "Kirkland Downs, Badvue, Forgetown, Fool's End, overgrown campuses, AI remnants, and salvage",
        "access": "Lake Washington ferries through Meridian, I-405 and SR-520 corridors, or hazardous northern approaches",
        "governance": "No regional government; settlement councils, house compacts, entrepreneurs, and fortified local rulers govern their own territory",
        "communities": "Fishing and agricultural enclaves, casino workers, salvagers, frontier traders, manufacturers, and fortified settlers",
        "organizations": "Soundline Co-op, Crosswake Marine, Lucky Crossing, Badvue's house compact, and Marshal Tamsin Rook's Fool's End",
        "connections": "Meridian ferries feed the Eastside; I-405 links Kirkland Downs, Badvue, and Forgetown; SR-520 runs toward Fool's End; the frontier fades east into Cascadia",
        "description": "Strictly east of Lake Washington, the Silicon Wilds are a patchwork of surviving enclaves, abandoned towers, server vaults, salvage zones, frontier communities, and half-functioning systems. Mercer Island is culturally and operationally tied to the Wilds, though it lies outside the geographic boundary. The eastern edge has no hard line and gradually becomes Cascadia.",
        "label_coordinates": [
          -122.02,
          47.6
        ],
        "image_asset": "images/locations/region-silicon-wilds.webp"
      },
      "geometry": {
        "type": "Polygon",
        "coordinates": [
          [
            [
              -122.225,
              47.75
            ],
            [
              -121.96,
              47.79
            ],
            [
              -121.84,
              47.69
            ],
            [
              -121.87,
              47.47
            ],
            [
              -122.08,
              47.43
            ],
            [
              -122.19,
              47.5
            ],
            [
              -122.205,
              47.56
            ],
            [
              -122.195,
              47.64
            ],
            [
              -122.205,
              47.7
            ],
            [
              -122.225,
              47.75
            ]
          ]
        ]
      }
    },
    {
      "type": "Feature",
      "id": 105,
      "properties": {
        "name": "Cascade Approaches",
        "code": "CAS // FRONTIER",
        "category": "CONTESTED FRONTIER",
        "color": "#f2b84b",
        "legend_order": 5,
        "status": "Fragmented local control",
        "known_for": "Independent settlements and Resonance anomalies",
        "access": "Expedition travel beyond the last checkpoints",
        "description": "Corporate authority thins east of the surviving metropolitan corridor. Roads decay into defended routes between cohesive settlements, dangerous wilderness, and territories whose boundaries are not merely political.",
        "label_coordinates": [
          -121.53,
          47.57
        ],
        "image_asset": "images/locations/region-cascade-approaches.webp"
      },
      "geometry": {
        "type": "Polygon",
        "coordinates": [
          [
            [
              -121.82,
              48.08
            ],
            [
              -121.23,
              48.06
            ],
            [
              -121.2,
              47.15
            ],
            [
              -121.8,
              47.13
            ],
            [
              -121.87,
              47.47
            ],
            [
              -121.84,
              47.69
            ],
            [
              -121.82,
              48.08
            ]
          ]
        ]
      }
    }
  ]
}
