{
  "type": "FeatureCollection",
  "name": "Cybermancy player-safe routes and landmarks",
  "features": [
    {
      "type": "Feature",
      "id": 101,
      "properties": {
        "name": "Guarded I-5 Corridor",
        "category": "route",
        "color": "#f1c96d",
        "map_scope": "regional",
        "status": "Primary guarded north-south road",
        "known_for": "Protected commerce among Everett, Seattle, and Tacoma",
        "access": "Checkpoints, convoy schedules, and locally controlled approaches",
        "description": "The surviving I-5 corridor carries guarded commerce through the Puget Sound city-states. Control changes along the route, and Tacoma maintains a defensive zone without routinely stopping through traffic.",
        "audience": "player",
        "image_asset": "images/locations/route-guarded-i-5-corridor.webp"
      },
      "geometry": {
        "type": "LineString",
        "coordinates": [
          [
            -122.205,
            48.01
          ],
          [
            -122.223,
            47.88
          ],
          [
            -122.322,
            47.7
          ],
          [
            -122.33,
            47.61
          ],
          [
            -122.3,
            47.4
          ],
          [
            -122.41,
            47.25
          ],
          [
            -122.44,
            47.16
          ]
        ]
      }
    },
    {
      "type": "Feature",
      "id": 102,
      "properties": {
        "name": "West Seattle Ferry Route",
        "category": "route",
        "color": "#5adce4",
        "map_scope": "seattle",
        "status": "Local passenger and light-cargo crossing",
        "known_for": "Connecting West Seattle with the central waterfront",
        "access": "Scheduled sailings and neighborhood-controlled terminals",
        "description": "Ferries supplement West Seattle's surviving guarded bridges and carry passengers and light cargo to the central city.",
        "audience": "player",
        "image_asset": "images/locations/route-west-seattle-ferry-route.webp"
      },
      "geometry": {
        "type": "LineString",
        "coordinates": [
          [
            -122.342,
            47.603
          ],
          [
            -122.369,
            47.585
          ],
          [
            -122.397,
            47.571
          ]
        ]
      }
    },
    {
      "type": "Feature",
      "id": 103,
      "properties": {
        "name": "Space Needle",
        "code": "SEA // NEEDLE",
        "category": "landmark",
        "map_scope": "seattle",
        "status": "Protected civic landmark",
        "known_for": "Observation decks, civic ceremonies, and skyline visibility",
        "access": "Public lower levels; controlled upper access",
        "description": "Seattle's most recognizable surviving landmark remains a civic symbol, observation point, and carefully maintained piece of the pre-Razz skyline.",
        "audience": "player",
        "image_asset": "images/locations/poi-space-needle.webp"
      },
      "geometry": {
        "type": "Point",
        "coordinates": [
          -122.3493,
          47.6205
        ]
      }
    },
    {
      "type": "Feature",
      "id": 104,
      "properties": {
        "name": "Helios Campus",
        "code": "SEA // HELIOS",
        "category": "corporate",
        "map_scope": "seattle",
        "status": "Active corporate research campus",
        "known_for": "Biomedical research and its elevated central platform",
        "access": "Public perimeter; credentialed interior",
        "description": "Five research buildings and an elevated central platform dominate Seattle's biomedical corridor. Corporate security treats the campus as critical infrastructure.",
        "audience": "player",
        "image_asset": "images/locations/poi-helios-campus.webp"
      },
      "geometry": {
        "type": "Point",
        "coordinates": [
          -122.333,
          47.625
        ]
      }
    },
    {
      "type": "Feature",
      "id": 105,
      "properties": {
        "name": "Boeing Field Fortress",
        "code": "SEA // BOEING",
        "category": "corporate",
        "map_scope": "seattle",
        "status": "Fortified aerospace complex",
        "known_for": "Heavy security, air operations, and industrial capacity",
        "access": "Restricted perimeter inside Bombshell",
        "description": "The surviving Boeing Field complex has become a hardened corporate-industrial fortress surrounded by the damaged infrastructure of southern Seattle.",
        "audience": "player",
        "image_asset": "images/locations/poi-boeing-field-fortress.webp"
      },
      "geometry": {
        "type": "Point",
        "coordinates": [
          -122.302,
          47.529
        ]
      }
    },
    {
      "type": "Feature",
      "id": 106,
      "properties": {
        "name": "The Names We Carry",
        "code": "SEA // MEMORIAL",
        "category": "landmark",
        "map_scope": "seattle",
        "status": "Public memorial",
        "known_for": "The Unforgotten and Unforgiven observance and metahuman civil-rights vigils",
        "access": "Public plaza during daylight and commemorations",
        "description": "A destroyed armored carrier has become Bombshell's public memorial to metahumans killed during one of Seattle's defining acts of violence. The annual Unforgotten and Unforgiven observance keeps the site politically and culturally active.",
        "events": "Unforgotten and Unforgiven is the annual memorial observance.",
        "audience": "player",
        "image_asset": "images/locations/poi-the-names-we-carry.webp"
      },
      "geometry": {
        "type": "Point",
        "coordinates": [
          -122.33,
          47.52
        ]
      }
    },
    {
      "type": "Feature",
      "id": 107,
      "properties": {
        "name": "Meridian–Silicon Wilds Ferry Route",
        "code": "SEA // EASTSIDE FERRY",
        "category": "route",
        "color": "#5adce4",
        "map_scope": "regional",
        "status": "Guarded cross-lake trade route",
        "known_for": "Soundline passenger service, Crosswake freight, Lucky Crossing casino service, expeditions, and salvage",
        "access": "Madison and Leschi terminals with controlled Eastside landings",
        "organizations": "Soundline Co-op, Crosswake Marine, and Lucky Crossing",
        "connections": "Meridian to Eastside settlements; returning salvage continues to Gasworks or corporate buyers",
        "description": "Lake Washington ferries connect Meridian with the Silicon Wilds. Expeditions, traders, and outfitters travel east; recovered technology returns through Madison or Leschi toward Gasworks workshops and corporate buyers.",
        "audience": "player",
        "image_asset": "images/locations/route-meridiansilicon-wilds-ferry-route.webp"
      },
      "geometry": {
        "type": "LineString",
        "coordinates": [
          [
            -122.275,
            47.615
          ],
          [
            -122.245,
            47.615
          ],
          [
            -122.215,
            47.615
          ],
          [
            -122.195,
            47.615
          ]
        ]
      }
    },
    {
      "type": "Feature",
      "id": 108,
      "properties": {
        "name": "The Seam",
        "code": "SEA // SEAM",
        "category": "landmark",
        "map_scope": "seattle",
        "status": "Continuous gray-market bazaar",
        "known_for": "Salvage, information, expedition gear, and twenty-four-hour trade",
        "access": "Beneath and alongside I-5 in Meridian",
        "description": "The Seam is Meridian's twenty-four-hour market under I-5, where brokers, fixers, traders, and expedition crews exchange equipment, salvage, information, and introductions.",
        "audience": "player",
        "image_asset": "images/locations/poi-the-seam.webp"
      },
      "geometry": {
        "type": "Point",
        "coordinates": [
          -122.329,
          47.619
        ]
      }
    },
    {
      "type": "Feature",
      "id": 109,
      "properties": {
        "name": "Madison Ferry Terminal",
        "code": "SEA // MADISON",
        "category": "transit",
        "map_scope": "seattle",
        "status": "Active passenger and light-cargo terminal",
        "known_for": "Soundline service and Eastside expedition departures",
        "access": "Ticketed public service with cargo and identity checks",
        "organizations": "Soundline Co-op",
        "description": "Madison is Meridian's principal passenger and light-cargo terminal for Lake Washington crossings.",
        "audience": "player",
        "image_asset": "images/locations/poi-madison-ferry-terminal.webp"
      },
      "geometry": {
        "type": "Point",
        "coordinates": [
          -122.278,
          47.635
        ]
      }
    },
    {
      "type": "Feature",
      "id": 110,
      "properties": {
        "name": "Leschi Freight Terminal",
        "code": "SEA // LESCHI",
        "category": "transit",
        "map_scope": "seattle",
        "status": "Active heavy freight terminal",
        "known_for": "Vehicles, salvage shipments, and expedition cargo",
        "access": "Controlled freight yards and scheduled vehicle ferries",
        "organizations": "Crosswake Marine",
        "description": "Leschi handles heavy freight, vehicles, and the bulk of the salvage returning from the Silicon Wilds.",
        "audience": "player",
        "image_asset": "images/locations/poi-leschi-freight-terminal.webp"
      },
      "geometry": {
        "type": "Point",
        "coordinates": [
          -122.286,
          47.6
        ]
      }
    },
    {
      "type": "Feature",
      "id": 111,
      "properties": {
        "name": "Afterimage",
        "code": "SEA // AFTERIMAGE",
        "category": "landmark",
        "map_scope": "seattle",
        "status": "Active nightclub and deal venue",
        "known_for": "Music, runners, brokers, and dangerous private business",
        "access": "Public club floor; selective private rooms",
        "description": "Afterimage is one of Meridian's best-known nightlife and deal-making venues. It is emphatically not neutral ground.",
        "audience": "player",
        "image_asset": "images/locations/poi-afterimage.webp"
      },
      "geometry": {
        "type": "Point",
        "coordinates": [
          -122.319,
          47.623
        ]
      }
    },
    {
      "type": "Feature",
      "id": 112,
      "properties": {
        "name": "The Third Door",
        "code": "SEA // THIRD DOOR",
        "category": "landmark",
        "map_scope": "seattle",
        "status": "Exclusive neutral runner venue",
        "known_for": "Introductions, arbitration, and protected negotiations",
        "access": "Admission by established standing and invitation",
        "governance": "The Three Elders enforce venue neutrality",
        "description": "The Third Door is a tightly controlled neutral venue for experienced runners, fixers, and brokers. Violence or coercion inside carries consequences across Meridian.",
        "gm_notes": "The Three Elders are Etta 'Switch' Mercer, Garran 'Rampart' Okoye, and Ilyra 'Copper' Venn. Exact admission mechanics remain unresolved.",
        "audience": "player",
        "image_asset": "images/locations/poi-the-third-door.webp"
      },
      "geometry": {
        "type": "Point",
        "coordinates": [
          -122.322,
          47.61
        ]
      }
    },
    {
      "type": "Feature",
      "id": 113,
      "properties": {
        "name": "The Foundry",
        "code": "SEA // FOUNDRY",
        "category": "landmark",
        "map_scope": "seattle",
        "status": "Shared makerspace and industrial complex",
        "known_for": "Fabrication bays, prototyping, induction, and workshop collaboration",
        "access": "Members receive priority; visitors require sponsorship or a public event",
        "organizations": "Greater Seattle Workshop Exchange",
        "description": "The Foundry is Gasworks' central shared makerspace and industrial complex, providing equipment and work areas that small shops could not maintain alone.",
        "events": "AQRE/The Works is the annual exposition and induction festival.",
        "audience": "player",
        "image_asset": "images/locations/poi-the-foundry.webp"
      },
      "geometry": {
        "type": "Point",
        "coordinates": [
          -122.341,
          47.659
        ]
      }
    },
    {
      "type": "Feature",
      "id": 114,
      "properties": {
        "name": "Gas Works Park",
        "code": "SEA // GAS WORKS PARK",
        "category": "landmark",
        "map_scope": "seattle",
        "status": "Public industrial landmark",
        "known_for": "Old machinery, gatherings, and views across the canal",
        "access": "Open grounds with locally posted restrictions",
        "description": "The preserved industrial structures of Gas Works Park remain a district landmark and gathering place.",
        "gm_notes": "Subsurface structures and inhabitants are unresolved rumors, not established canon.",
        "audience": "player",
        "image_asset": "images/locations/poi-gas-works-park.webp"
      },
      "geometry": {
        "type": "Point",
        "coordinates": [
          -122.334,
          47.646
        ]
      }
    },
    {
      "type": "Feature",
      "id": 115,
      "properties": {
        "name": "Fremont Lenin Statue",
        "code": "SEA // LENIN",
        "category": "landmark",
        "map_scope": "seattle",
        "status": "Public neighborhood landmark",
        "known_for": "Gasworks' inherited eccentric civic identity",
        "access": "Open street access",
        "description": "The old Lenin statue survives as a familiar meeting point and symbol of the district's cultivated weirdness.",
        "audience": "player",
        "image_asset": "images/locations/poi-fremont-lenin-statue.webp"
      },
      "geometry": {
        "type": "Point",
        "coordinates": [
          -122.35,
          47.651
        ]
      }
    },
    {
      "type": "Feature",
      "id": 116,
      "properties": {
        "name": "Physics-Astronomy Prometheus Shard",
        "code": "UW // SHARD 01",
        "category": "landmark",
        "map_scope": "seattle",
        "status": "Publicly displayed, expended artifact",
        "known_for": "One of the university's two expended Prometheus Shards",
        "access": "Public lobby during campus hours",
        "description": "An expended Prometheus Shard is displayed in the Physics-Astronomy lobby under university security.",
        "audience": "player",
        "image_asset": "images/locations/poi-physics-astronomy-prometheus-shard.webp"
      },
      "geometry": {
        "type": "Point",
        "coordinates": [
          -122.312,
          47.654
        ]
      }
    },
    {
      "type": "Feature",
      "id": 117,
      "properties": {
        "name": "Allen Center Prometheus Shard",
        "code": "UW // SHARD 02",
        "category": "landmark",
        "map_scope": "seattle",
        "status": "Publicly displayed, expended artifact",
        "known_for": "One of the university's two expended Prometheus Shards",
        "access": "Public lobby during campus hours",
        "description": "An expended Prometheus Shard is displayed in the Allen Center lobby under university and corporate observation.",
        "audience": "player",
        "image_asset": "images/locations/poi-allen-center-prometheus-shard.webp"
      },
      "geometry": {
        "type": "Point",
        "coordinates": [
          -122.307,
          47.653
        ]
      }
    },
    {
      "type": "Feature",
      "id": 118,
      "properties": {
        "name": "Bombshell Mutual Works",
        "code": "SEA // MUTUAL WORKS",
        "category": "settlement",
        "map_scope": "seattle",
        "status": "Active mutual-aid and reconstruction hub",
        "known_for": "Repairs, supplies, neighborhood coordination, and practical relief",
        "access": "Open to residents and volunteers subject to local safety rules",
        "organizations": "Bombshell Mutual Works",
        "description": "Auntie Lee Varga's mutual-aid network coordinates repairs, supplies, and neighborhood rebuilding across Bombshell.",
        "audience": "player",
        "image_asset": "images/locations/poi-bombshell-mutual-works.webp"
      },
      "geometry": {
        "type": "Point",
        "coordinates": [
          -122.326,
          47.548
        ]
      }
    },
    {
      "type": "Feature",
      "id": 119,
      "properties": {
        "name": "Church of the Shattered Glass",
        "code": "SEA // SHATTERED GLASS",
        "category": "landmark",
        "map_scope": "seattle",
        "status": "Active Bombshell congregation",
        "known_for": "Mutual support, apocalyptic preaching, and Sister Rhea Calder",
        "access": "Open services; congregation-controlled private areas",
        "description": "The Church of the Shattered Glass is an active Bombshell congregation led by Sister Rhea Calder, offering community support alongside uncompromising spiritual teaching.",
        "gm_notes": "Rhea sincerely worships Abraxas; this is not merely a grift or cover identity.",
        "audience": "player",
        "image_asset": "images/locations/poi-church-of-the-shattered-glass.webp"
      },
      "geometry": {
        "type": "Point",
        "coordinates": [
          -122.319,
          47.535
        ]
      }
    },
    {
      "type": "Feature",
      "id": 120,
      "properties": {
        "name": "West Seattle High Bridge",
        "code": "SEA // HIGH BRIDGE",
        "category": "transit",
        "map_scope": "seattle",
        "status": "Surviving controlled crossing",
        "known_for": "Primary bridge access to West Seattle",
        "access": "Identity, cargo, and weapons checks",
        "description": "The surviving high bridge remains one of West Seattle's principal overland connections and is guarded by Civic Guard checkpoints.",
        "audience": "player",
        "image_asset": "images/locations/poi-west-seattle-high-bridge.webp"
      },
      "geometry": {
        "type": "Point",
        "coordinates": [
          -122.35,
          47.571
        ]
      }
    },
    {
      "type": "Feature",
      "id": 121,
      "properties": {
        "name": "1st Avenue South Bridge",
        "code": "SEA // SOUTH BRIDGE",
        "category": "transit",
        "map_scope": "seattle",
        "status": "Surviving controlled crossing",
        "known_for": "Southern vehicle and freight access to West Seattle",
        "access": "Identity, cargo, and weapons checks",
        "description": "The 1st Avenue South Bridge provides West Seattle's surviving southern overland connection and is guarded as critical infrastructure.",
        "audience": "player",
        "image_asset": "images/locations/poi-1st-avenue-south-bridge.webp"
      },
      "geometry": {
        "type": "Point",
        "coordinates": [
          -122.335,
          47.529
        ]
      }
    },
    {
      "type": "Feature",
      "id": 122,
      "properties": {
        "name": "Washington Park Arboretum Wild",
        "code": "SEA // ARBORETUM WILD",
        "category": "hazard",
        "map_scope": "seattle",
        "status": "Established urban Wild",
        "known_for": "Dense altered plant life and unreliable interior paths",
        "access": "Travel with local guides and protective equipment",
        "description": "The Arboretum has become a true urban Wild. Its altered vegetation and shifting safe paths form a hazardous eastern edge within Meridian.",
        "gm_notes": "Specific rumored inhabitants or phenomena remain unconfirmed and should not be presented as settled canon.",
        "audience": "player",
        "image_asset": "images/locations/poi-washington-park-arboretum-wild.webp"
      },
      "geometry": {
        "type": "Point",
        "coordinates": [
          -122.295,
          47.635
        ]
      }
    },
    {
      "type": "Feature",
      "id": 123,
      "properties": {
        "name": "Madrona Decay Wild",
        "code": "SEA // MADRONA WILD",
        "category": "hazard",
        "map_scope": "seattle",
        "status": "Established urban decay Wild",
        "known_for": "Unstable structures, altered growth, and unreliable streets",
        "access": "Marked perimeter routes only",
        "description": "Parts of Madrona have collapsed into an urban decay Wild whose damaged streets and altered growth complicate Meridian's lakefront routes.",
        "gm_notes": "Specific rumored inhabitants or phenomena remain unconfirmed and should not be presented as settled canon.",
        "audience": "player",
        "image_asset": "images/locations/poi-madrona-decay-wild.webp"
      },
      "geometry": {
        "type": "Point",
        "coordinates": [
          -122.288,
          47.614
        ]
      }
    },
    {
      "type": "Feature",
      "id": 124,
      "properties": {
        "name": "AQRE / The Works",
        "code": "SEA // THE WORKS",
        "category": "event",
        "map_scope": "seattle",
        "status": "Annual exposition and induction festival",
        "known_for": "Public demonstrations, new makers, prototypes, and Gasworks-wide celebration",
        "access": "Public exhibitions with member-only workshop events",
        "organizations": "Greater Seattle Workshop Exchange",
        "description": "The Works is Gasworks' annual exposition, festival, and induction season, when workshops demonstrate new projects and prospective members enter the district's maker culture.",
        "audience": "player",
        "image_asset": "images/locations/poi-aqre-the-works.webp"
      },
      "geometry": {
        "type": "Point",
        "coordinates": [
          -122.338,
          47.657
        ]
      }
    },
    {
      "type": "Feature",
      "id": 125,
      "properties": {
        "name": "Eriador, Inc.",
        "code": "SEA // ERIADOR",
        "category": "corporate",
        "map_scope": "seattle",
        "status": "Active Gasworks technology firm",
        "known_for": "Small-scale technical work within the workshop economy",
        "access": "Business access by appointment",
        "description": "Eriador, Inc. operates inside Gasworks' larger workshop ecosystem and employs Stella Brownlock.",
        "audience": "player",
        "image_asset": "images/locations/poi-eriador-inc.webp"
      },
      "geometry": {
        "type": "Point",
        "coordinates": [
          -122.345,
          47.669
        ]
      }
    },
    {
      "type": "Feature",
      "id": 130,
      "properties": {
        "name": "Kirkland Downs",
        "code": "WILDS // KIRKLAND",
        "category": "settlement",
        "map_scope": "regional",
        "status": "Independent fishing, agricultural, and salvage enclave",
        "known_for": "Earthquake ruins, lake trade, local farming, and salvage",
        "access": "Lake landings and the I-405 corridor",
        "governance": "Mayor and local council",
        "description": "Kirkland Downs occupies surviving lakefront and earthquake ruins, balancing fishing, agriculture, and salvage under a local mayor and council.",
        "audience": "player",
        "image_asset": "images/locations/poi-kirkland-downs.webp"
      },
      "geometry": {
        "type": "Point",
        "coordinates": [
          -122.208,
          47.676
        ]
      }
    },
    {
      "type": "Feature",
      "id": 131,
      "properties": {
        "name": "Badvue",
        "code": "WILDS // BADVUE",
        "category": "settlement",
        "map_scope": "regional",
        "status": "Casino boomtown and expedition hub",
        "known_for": "Casinos, outfitting, vice, and fast frontier money",
        "access": "Ferries, I-405, and guarded local approaches",
        "governance": "A compact among the dominant houses",
        "organizations": "Lucky Crossing and Badvue's house compact",
        "description": "Former downtown Bellevue has become Badvue, a casino boomtown where expedition outfitting, vice, salvage money, and house politics meet.",
        "audience": "player",
        "image_asset": "images/locations/poi-badvue.webp"
      },
      "geometry": {
        "type": "Point",
        "coordinates": [
          -122.202,
          47.61
        ]
      }
    },
    {
      "type": "Feature",
      "id": 132,
      "properties": {
        "name": "Mercer Island Outpost",
        "code": "WILDS // MERCER",
        "category": "settlement",
        "map_scope": "regional",
        "status": "Agrarian lake outpost",
        "known_for": "Food production, lake trade, and operational ties to the Silicon Wilds",
        "access": "Lake crossings and locally controlled roads",
        "description": "Mercer Island lies outside the Silicon Wilds' strict east-of-lake geography but is culturally and operationally part of its settlement network.",
        "audience": "player",
        "image_asset": "images/locations/poi-mercer-island-outpost.webp"
      },
      "geometry": {
        "type": "Point",
        "coordinates": [
          -122.222,
          47.57
        ]
      }
    },
    {
      "type": "Feature",
      "id": 133,
      "properties": {
        "name": "Forgetown",
        "code": "WILDS // FORGETOWN",
        "category": "settlement",
        "map_scope": "regional",
        "status": "Walled manufacturing settlement",
        "known_for": "Scaling rough prototypes into practical mass production",
        "access": "I-405 freight traffic and controlled gates",
        "governance": "Competing entrepreneurs and workshop owners",
        "connections": "Gasworks prototypes commonly move here for larger production runs",
        "description": "Built around former Factoria, Forgetown manufactures whatever the frontier can pay for and turns Gasworks prototypes into rugged production goods.",
        "audience": "player",
        "image_asset": "images/locations/poi-forgetown.webp"
      },
      "geometry": {
        "type": "Point",
        "coordinates": [
          -122.165,
          47.576
        ]
      }
    },
    {
      "type": "Feature",
      "id": 134,
      "properties": {
        "name": "Fool's End",
        "code": "WILDS // REDMOND",
        "category": "settlement",
        "map_scope": "regional",
        "status": "Fortified settlement and military fief",
        "known_for": "Tolls, hardened defenses, and control of the Redmond approach",
        "access": "SR-520 corridor under local inspection and toll",
        "governance": "Marshal Tamsin Rook",
        "description": "Redmond's surviving settlement, commonly called Fool's End, is a fortified military fief controlling a major route into the eastern Wilds.",
        "audience": "player",
        "image_asset": "images/locations/poi-fool-s-end.webp"
      },
      "geometry": {
        "type": "Point",
        "coordinates": [
          -122.122,
          47.674
        ]
      }
    },
    {
      "type": "Feature",
      "id": 135,
      "properties": {
        "name": "I-405 Wilds Corridor",
        "code": "WILDS // I-405",
        "category": "route",
        "color": "#8ee783",
        "map_scope": "regional",
        "status": "Partially secured settlement corridor",
        "known_for": "Trade among Kirkland Downs, Badvue, and Forgetown",
        "access": "Convoys, settlement patrols, and negotiated tolls",
        "description": "Surviving stretches of I-405 form the Wilds' main north-south trade spine among Kirkland Downs, Badvue, and Forgetown.",
        "audience": "player",
        "image_asset": "images/locations/route-i-405-wilds-corridor.webp"
      },
      "geometry": {
        "type": "LineString",
        "coordinates": [
          [
            -122.19,
            47.676
          ],
          [
            -122.19,
            47.61
          ],
          [
            -122.165,
            47.576
          ]
        ]
      }
    },
    {
      "type": "Feature",
      "id": 136,
      "properties": {
        "name": "SR-520 Wilds Corridor",
        "code": "WILDS // 520",
        "category": "route",
        "color": "#8ee783",
        "map_scope": "regional",
        "status": "Partially secured east-west corridor",
        "known_for": "Access from Lake Washington toward Fool's End",
        "access": "Patrolled segments, tolls, and hazardous gaps",
        "description": "The surviving SR-520 corridor connects Eastside lake approaches with Fool's End and the routes beyond Redmond.",
        "audience": "player",
        "image_asset": "images/locations/route-sr-520-wilds-corridor.webp"
      },
      "geometry": {
        "type": "LineString",
        "coordinates": [
          [
            -122.2,
            47.643
          ],
          [
            -122.17,
            47.65
          ],
          [
            -122.122,
            47.674
          ]
        ]
      }
    },
    {
      "type": "Feature",
      "id": 137,
      "properties": {
        "name": "Port of Tacoma",
        "code": "TAC // DEEPWATER",
        "category": "transit",
        "map_scope": "regional",
        "status": "Primary regional deepwater port",
        "known_for": "International cargo, military logistics, and Black Helix-secured convoys",
        "access": "Ephorate-controlled harbor and credentialed freight zones",
        "organizations": "Tacoma Ephorate and Black Helix",
        "description": "Tacoma's deepwater port is the foundation of its independence and a trade asset Seattle cannot afford to lose.",
        "audience": "player",
        "image_asset": "images/locations/poi-port-of-tacoma.webp"
      },
      "geometry": {
        "type": "Point",
        "coordinates": [
          -122.43,
          47.265
        ]
      }
    },
    {
      "type": "Feature",
      "id": 138,
      "properties": {
        "name": "Porter Way Memorial",
        "code": "TAC // PORTER WAY",
        "category": "landmark",
        "map_scope": "regional",
        "status": "Public bombing memorial",
        "known_for": "Remembering the school-bus victims of the Porter Way Bombing",
        "access": "Public roadside memorial near Milton",
        "description": "The memorial marks the Porter Way Bombing, where a Human Coalition Front attack intended for a convoy struck a school bus thirteen years before the campaign.",
        "gm_notes": "The current status of Human Coalition Front remnants and ties to militant Empty Seats activity are campaign material.",
        "audience": "player",
        "image_asset": "images/locations/poi-porter-way-memorial.webp"
      },
      "geometry": {
        "type": "Point",
        "coordinates": [
          -122.296,
          47.248
        ]
      }
    },
    {
      "type": "Feature",
      "id": 139,
      "properties": {
        "name": "Tacoma Defensive Zone",
        "code": "TAC // NORTH LINE",
        "category": "route",
        "color": "#e76ab7",
        "map_scope": "regional",
        "status": "Porous fortified approach",
        "known_for": "Checkpoints between Fife and the I-5/Highway 161 interchange",
        "access": "Through traffic usually continues; entry into Tacoma-controlled territory is inspected",
        "description": "Tacoma's northern defensive zone protects the approaches near Fife and Milton without routinely interfering with I-5 traffic passing through the corridor.",
        "audience": "player",
        "image_asset": "images/locations/route-tacoma-defensive-zone.webp"
      },
      "geometry": {
        "type": "LineString",
        "coordinates": [
          [
            -122.335,
            47.25
          ],
          [
            -122.31,
            47.245
          ],
          [
            -122.29,
            47.23
          ]
        ]
      }
    },
    {
      "type": "Feature",
      "id": 140,
      "properties": {
        "name": "Alder House",
        "category": "landmark",
        "color": "#d7c47b",
        "map_scope": "seattle",
        "code": "SEA // ALDER HOUSE",
        "status": "Old City shelter in a converted former hotel",
        "known_for": "Seattle’s largest and best-known local homeless shelter",
        "access": "Public intake and community services; overnight capacity managed by staff",
        "organizations": "Alder House",
        "description": "Alder House occupies a former hotel in Old City and has grown into the district’s largest and best-known homeless shelter. Longtime director and caretaker Margaret “Mags” Okafor is a familiar neighborhood figure whose authority comes from decades of keeping the doors open.",
        "connections": "Old City service networks, churches, neighborhood merchants, outreach workers, and municipal social-service contacts",
        "audience": "player"
      },
      "geometry": {
        "type": "Point",
        "coordinates": [
          -122.335,
          47.596
        ]
      }
    },
    {
      "type": "Feature",
      "id": 141,
      "properties": {
        "name": "The Stadium",
        "category": "landmark",
        "color": "#d7c47b",
        "map_scope": "seattle",
        "code": "SEA // STADIUM",
        "status": "Continuously modernized stadium and event complex",
        "known_for": "Sports, major public events, corporate hospitality, and crowds from across Seattle",
        "access": "Public event access with variable security and credentialing",
        "description": "The Stadium is a large, continuously updated complex south of downtown. Its corporate naming rights change often enough that locals simply call it the Stadium, treating the shifting sponsor identity as background noise.",
        "connections": "Old City, Corporate Core transit, waterfront routes, event security, food and service businesses",
        "audience": "player"
      },
      "geometry": {
        "type": "Point",
        "coordinates": [
          -122.332,
          47.591
        ]
      }
    },
    {
      "type": "Feature",
      "id": 142,
      "properties": {
        "name": "The Long Table",
        "category": "landmark",
        "color": "#d7c47b",
        "map_scope": "seattle",
        "code": "SEA // LONG TABLE",
        "status": "Old City diner and bar",
        "known_for": "Workers, mechanics, locals, quiet meetings, and relative anonymity",
        "access": "Open to the public",
        "description": "The Long Table is an old diner and bar just south of the Corporate Core where neighborhood regulars, mechanics, service workers, and people who prefer not to be noticed share booths under old fixtures and repaired ventilation. It survives by being useful, familiar, and uninterested in anyone’s status.",
        "connections": "Old City residents, shift workers, mechanics, runners, and lower-level corporate employees",
        "audience": "player"
      },
      "geometry": {
        "type": "Point",
        "coordinates": [
          -122.337,
          47.599
        ]
      }
    },
    {
      "type": "Feature",
      "id": 143,
      "properties": {
        "name": "Spokane Pump Station 4",
        "category": "landmark",
        "color": "#d7c47b",
        "map_scope": "seattle",
        "code": "SEA // PUMP 4",
        "status": "Aging municipal water and drainage facility",
        "known_for": "Old pumps, service tunnels, stormwater infrastructure, and access to legacy utility networks",
        "access": "Municipal facility; exterior service areas are visible while operational spaces are restricted",
        "organizations": "Seattle municipal utilities",
        "description": "Spokane Pump Station 4 is an aging municipal facility near the southern edge of Old City. Its patched pumps, control cabinets, and maintenance shafts connect to older utility, storm, and sewer infrastructure that predates many current street plans.",
        "gm_notes": "The old infrastructure should not be treated as proof of treasure, contamination, a replacement underground settlement, or any resolved Adventure 1 mystery.",
        "audience": "player"
      },
      "geometry": {
        "type": "Point",
        "coordinates": [
          -122.351,
          47.572
        ]
      }
    },
    {
      "type": "Feature",
      "id": 144,
      "properties": {
        "name": "The Exchange",
        "category": "landmark",
        "color": "#d7c47b",
        "map_scope": "seattle",
        "code": "SEA // EXCHANGE",
        "status": "Major Corporate Core public plaza",
        "known_for": "Flagship offices, restaurants, premium public space, transit connections, and business meetings",
        "access": "Public pedestrian space under dense passive surveillance and credential-aware security",
        "organizations": "Major corporate tenants and plaza management",
        "description": "The Exchange is one of the Corporate Core’s defining public spaces: a broad, meticulously maintained plaza surrounded by flagship offices, restaurants, transit entrances, and expensive civic amenities. It is pleasant, active, and safe precisely because almost everything happening there is observable.",
        "connections": "Corporate offices, Mercer Interchange, hotels, restaurants, and executive transit",
        "audience": "player"
      },
      "geometry": {
        "type": "Point",
        "coordinates": [
          -122.338,
          47.611
        ]
      }
    },
    {
      "type": "Feature",
      "id": 145,
      "properties": {
        "name": "Vesper Row",
        "category": "landmark",
        "color": "#d7c47b",
        "map_scope": "seattle",
        "code": "SEA // VESPER ROW",
        "status": "Corporate Core nightlife corridor",
        "known_for": "Bars, restaurants, clubs, entertainment, visiting professionals, and after-hours corporate social life",
        "access": "Public, with venue-specific credentialing and security",
        "description": "Vesper Row is the Corporate Core’s principal nightlife corridor, serving corporate workers, clients, travelers, and visitors with polished bars, restaurants, clubs, and late-night entertainment. It is lively rather than lawless, with security designed to be visible only when needed.",
        "connections": "Corporate hotels, The Exchange, executive residences, transit, and hospitality networks",
        "audience": "player"
      },
      "geometry": {
        "type": "Point",
        "coordinates": [
          -122.347,
          47.617
        ]
      }
    },
    {
      "type": "Feature",
      "id": 146,
      "properties": {
        "name": "Mercer Interchange",
        "category": "transit",
        "color": "#d7c47b",
        "map_scope": "seattle",
        "code": "SEA // MERCER",
        "status": "Integrated metropolitan transit interchange",
        "known_for": "Rail, autonomous shuttles, waterfront connections, and passenger-drone transfers",
        "access": "Public transit with identity-aware ticketing, screening, and corporate priority services",
        "organizations": "Municipal and corporate transit operators",
        "description": "Mercer Interchange combines rail, autonomous vehicles and shuttles, waterfront connections, and passenger-drone infrastructure in a single high-capacity node at the north edge of the Corporate Core.",
        "connections": "Corporate Core, Queen Anne, waterfront routes, regional rail, and corporate air mobility",
        "audience": "player"
      },
      "geometry": {
        "type": "Point",
        "coordinates": [
          -122.349,
          47.624
        ]
      }
    },
    {
      "type": "Feature",
      "id": 147,
      "properties": {
        "name": "West Point Estate",
        "category": "landmark",
        "color": "#d7c47b",
        "map_scope": "seattle",
        "code": "SEA // WEST POINT",
        "status": "Enormous private Queen Anne estate incorporating the old West Point Lighthouse",
        "known_for": "One of Seattle’s largest elite compounds and a preserved lighthouse incorporated into private grounds",
        "access": "Private estate; public roads nearby remain open",
        "organizations": "Helion Dynamics executive household",
        "description": "West Point Estate is an enormous private compound built around the old West Point Lighthouse. The property belongs to the female CEO of Helion Dynamics and is among the clearest expressions of Queen Anne’s estate culture: landscaped grounds, discreet security, and old civic geography absorbed into private wealth.",
        "gm_notes": "Helion Dynamics is distinct from Helios Biotech. Do not conflate the companies or invent a Council/Cabal affiliation for the estate.",
        "audience": "player"
      },
      "geometry": {
        "type": "Point",
        "coordinates": [
          -122.435,
          47.661
        ]
      }
    },
    {
      "type": "Feature",
      "id": 148,
      "properties": {
        "name": "Discovery Park",
        "category": "landmark",
        "color": "#d7c47b",
        "map_scope": "seattle",
        "code": "SEA // DISCOVERY",
        "status": "Elite private arboretum and recreation preserve",
        "known_for": "Managed landscapes, arboretum collections, private recreation, clubs, and social events",
        "access": "Controlled membership and guest access rather than ordinary public-park access",
        "description": "Discovery Park is no longer an ordinary municipal park. It has become an elite arboretum and recreation preserve serving Queen Anne’s wealthy residents through curated landscapes, walking grounds, private recreation, and social events.",
        "connections": "Queen Anne estates, private schools, clubs, charities, and West Point",
        "audience": "player"
      },
      "geometry": {
        "type": "Point",
        "coordinates": [
          -122.411,
          47.658
        ]
      }
    },
    {
      "type": "Feature",
      "id": 149,
      "properties": {
        "name": "Interbay",
        "category": "landmark",
        "color": "#d7c47b",
        "map_scope": "seattle",
        "code": "SEA // INTERBAY",
        "status": "Queen Anne shopping, arts, entertainment, and dining concentration",
        "known_for": "Fine dining, galleries, boutiques, performance venues, and elite-oriented commercial life",
        "access": "Public streets and businesses with extensive private security",
        "description": "Interbay is Queen Anne’s major concentration of shopping, arts, entertainment, and fine dining, where premium retail and cultural venues serve residents and visitors moving between the hill, the waterfront, and marina districts.",
        "connections": "Queen Anne residences, waterfront marinas, cultural institutions, restaurants, and corporate visitors",
        "audience": "player"
      },
      "geometry": {
        "type": "Point",
        "coordinates": [
          -122.383,
          47.65
        ]
      }
    },
    {
      "type": "Feature",
      "id": 150,
      "properties": {
        "name": "Fishermen’s Terminal Yacht-Club Complex",
        "category": "landmark",
        "color": "#d7c47b",
        "map_scope": "seattle",
        "code": "SEA // YACHT CLUB",
        "status": "Exclusive yacht-club and marina complex replacing the former Fishermen’s Terminal",
        "known_for": "Mega-yachts, private berths, marina services, elite social life, and waterfront hospitality",
        "access": "Private marina and club access with controlled guest facilities",
        "description": "The former Fishermen’s Terminal has been completely replaced by an exclusive yacht-club and marina complex serving Queen Anne’s maritime elite. The Atlas uses this descriptive label because no approved formal club name is established.",
        "connections": "Queen Anne yacht culture, Interbay, Salmon Bay, and recurring practical friction with Ballard Reach",
        "audience": "player"
      },
      "geometry": {
        "type": "Point",
        "coordinates": [
          -122.378,
          47.659
        ]
      }
    },
    {
      "type": "Feature",
      "id": 151,
      "properties": {
        "name": "The Crosscurrent",
        "category": "landmark",
        "color": "#d7c47b",
        "map_scope": "seattle",
        "code": "SEA // CROSSCURRENT",
        "status": "Floating Ballard tavern, marine shop, chandlery, and meeting hall",
        "known_for": "Captains’ Council meetings, repairs, supplies, drinks, and maritime gossip",
        "access": "Open by water and floating walkways",
        "organizations": "Captains’ Council",
        "description": "The Crosscurrent is a central floating Ballard establishment combining tavern, marine repair shop, chandlery, and meeting hall. It is the principal meeting place of the informal Captains’ Council. Proprietor Maris Vale, an aquatic/siren metahuman, is a marine mechanic first and bartender second; her Goth daughter Nerissa “Neri” Vale is similarly charismatic while rejecting nearly all of her mother’s social style.",
        "connections": "Ballard boat crews, floating communities, repair yards, Captains’ Council, markets, and marine trades",
        "audience": "player"
      },
      "geometry": {
        "type": "Point",
        "coordinates": [
          -122.389,
          47.681
        ]
      }
    },
    {
      "type": "Feature",
      "id": 152,
      "properties": {
        "name": "The Hardstand",
        "category": "landmark",
        "color": "#d7c47b",
        "map_scope": "regional",
        "code": "EVR // HARDSTAND",
        "status": "Bastion biker, worker, and veteran bar",
        "known_for": "Industrial crews, veterans, mechanics, shift changes, job rumors, and informal hiring",
        "access": "Public bar in a converted machine shop",
        "description": "The Hardstand is a major Everett biker, worker, and veteran bar operating from a converted machine shop. Owner Rhea “Chief” Navarro, a former naval aviation mechanic, keeps the place oriented toward working people rather than corporate hospitality.",
        "connections": "Paine aerospace crews, port workers, veterans, private-security staff, and industrial contractors",
        "audience": "player"
      },
      "geometry": {
        "type": "Point",
        "coordinates": [
          -122.214,
          47.981
        ]
      }
    },
    {
      "type": "Feature",
      "id": 153,
      "properties": {
        "name": "Everett Naval Breakers",
        "category": "landmark",
        "color": "#d7c47b",
        "map_scope": "regional",
        "code": "EVR // BREAKERS",
        "status": "Industrial salvage and manufacturing complex on the former Naval Station Everett",
        "known_for": "Shipbreaking, heavy salvage, contractor work, fabrication, and dismantling an old aircraft carrier",
        "access": "Industrial contractor zone with controlled work areas",
        "organizations": "Municipal port interests, salvage firms, manufacturers, and defense contractors",
        "description": "The former Naval Station Everett now functions as an industrial salvage, manufacturing, and contractor complex. An old aircraft carrier remains under active dismantling, surrounded by cranes, cutting rigs, fabrication sheds, and reused naval infrastructure.",
        "connections": "Everett port industry, heavy fabrication, defense contractors, and regional materials markets",
        "audience": "player"
      },
      "geometry": {
        "type": "Point",
        "coordinates": [
          -122.229,
          47.999
        ]
      }
    },
    {
      "type": "Feature",
      "id": 154,
      "properties": {
        "name": "Paine Industrial Aerodrome",
        "category": "transit",
        "color": "#d7c47b",
        "map_scope": "regional",
        "code": "EVR // PAINE",
        "status": "Aerospace manufacturing, testing, cargo, and autonomous-systems complex",
        "known_for": "Aircraft production, prototypes, drones, cargo, test flights, skilled-labor competition, and corporate espionage opportunities",
        "access": "Credentialed industrial and aviation zones around active runways",
        "organizations": "AstraVail Technologies, Black Helix Security, aerospace manufacturers, cargo operators, and specialist contractors",
        "description": "Paine Field and its surrounding aerospace complex form the Paine Industrial Aerodrome: a dense concentration of aircraft production, prototype testing, autonomous systems, cargo operations, drones, and specialized labor.",
        "gm_notes": "AstraVail and Black Helix are peers rather than territorial enemies. Their recurring rivalry centers on skilled workers and contracts; espionage opportunities do not imply an active shooting war.",
        "audience": "player"
      },
      "geometry": {
        "type": "Point",
        "coordinates": [
          -122.282,
          47.906
        ]
      }
    },
    {
      "type": "Feature",
      "id": 155,
      "properties": {
        "name": "North Bend",
        "category": "settlement",
        "color": "#d7c47b",
        "map_scope": "regional",
        "code": "CAS // NORTH BEND",
        "status": "Ordinary small town at the dependable edge of the Cascade Approaches",
        "known_for": "Food, fuel, lodging, repairs, supplies, local information, and access to guides",
        "access": "Road access from the metropolitan corridor; routes become substantially less dependable farther east",
        "governance": "Ordinary local civic government and community institutions",
        "description": "North Bend remains an ordinary small town. Its importance comes from being one of the last familiar service towns before infrastructure becomes substantially less dependable, making it a natural stop for food, fuel, lodging, repairs, supplies, local information, contacts, and guides.",
        "connections": "Seattle and Eastside travelers, Cascade routes, local residents, guides, repair shops, and supply networks",
        "audience": "player"
      },
      "geometry": {
        "type": "Point",
        "coordinates": [
          -121.783,
          47.495
        ]
      }
    }
  ]
}
