{
  "type": "FeatureCollection",
  "name": "Cybermancy player-safe Puget Sound regions",
  "features": [
    {
      "type": "Feature",
      "id": 101,
      "properties": {
        "name": "Seattle",
        "code": "SEA // CITY-STATE",
        "category": "CITY-STATE",
        "color": "#31d7e6",
        "legend_order": 1,
        "status": "Corporate metropolis",
        "known_for": "Council arcologies and protected infrastructure",
        "access": "Guarded roads, ferries, and controlled airspace",
        "description": "Seattle survived because it remained useful enough to save. Its brilliant corporate core is surrounded by districts preserved through municipal inertia, neighborhood cohesion, local power, or luck.",
        "label_coordinates": [
          -122.34,
          47.6
        ],
        "audience": "player",
        "image_asset": "images/locations/region-seattle.webp"
      },
      "geometry": {
        "type": "Polygon",
        "coordinates": [
          [
            [
              -122.47,
              47.74
            ],
            [
              -122.29,
              47.75
            ],
            [
              -122.245,
              47.73
            ],
            [
              -122.255,
              47.68
            ],
            [
              -122.275,
              47.62
            ],
            [
              -122.285,
              47.57
            ],
            [
              -122.25,
              47.5
            ],
            [
              -122.32,
              47.44
            ],
            [
              -122.43,
              47.48
            ],
            [
              -122.47,
              47.74
            ]
          ]
        ]
      }
    },
    {
      "type": "Feature",
      "id": 102,
      "properties": {
        "name": "Everett Bastion",
        "code": "EVR // INDUSTRIAL",
        "category": "INDUSTRIAL MUNICIPALITY",
        "color": "#78a9ff",
        "legend_order": 2,
        "status": "Everett municipality and northern industrial-defense hub",
        "known_for": "Aerospace, defense manufacturing, heavy fabrication, port industry, and skilled trades",
        "access": "I-5 commerce corridor, Paine industrial traffic, and Puget Sound port access",
        "description": "Everett Bastion is not a sovereign city-state. It is an ordinary municipality whose identity is dominated by aerospace, defense manufacturing, private-security infrastructure, heavy fabrication, transport, worker housing, and the remains of older U.S. military infrastructure. Its visible patriotic culture sits uneasily beside the fact that corporations now control much of the industry once associated with national institutions.",
        "label_coordinates": [
          -122.24,
          47.965
        ],
        "audience": "player",
        "image_asset": "images/locations/region-everett-bastion.webp",
        "governance": "Conventional Everett municipal government and services operating alongside powerful corporate employers",
        "communities": "Industrial workers, veterans, skilled trades, aerospace staff, security contractors, transport crews, and their families",
        "organizations": "AstraVail Technologies, Black Helix Security, municipal services, port contractors, and aerospace manufacturers",
        "connections": "Competes for skilled labor while supplying aerospace, security, fabrication, and transport capacity across Puget Sound",
        "gm_notes": "AstraVail Technologies and Black Helix Security are peers rather than territorial enemies; their strongest recurring rivalry is competition for skilled workers. Evelyn “Gauge” Mercer is a major local industrial fixer and a professional peer and friend of Mira “The Loom.” There is no organized anti-corporate uprising at campaign start."
      },
      "geometry": {
        "type": "Polygon",
        "coordinates": [
          [
            [
              -122.34,
              48.02
            ],
            [
              -122.19,
              48.02
            ],
            [
              -122.12,
              47.975
            ],
            [
              -122.16,
              47.91
            ],
            [
              -122.25,
              47.89
            ],
            [
              -122.33,
              47.92
            ],
            [
              -122.34,
              48.02
            ]
          ]
        ]
      }
    },
    {
      "type": "Feature",
      "id": 103,
      "properties": {
        "name": "Tacoma",
        "code": "TAC // EPHORATE",
        "category": "DE FACTO INDEPENDENT STATE",
        "color": "#e76ab7",
        "legend_order": 3,
        "status": "Metahuman-led military republic in an armed cessation with Seattle",
        "known_for": "Deepwater shipping, military service citizenship, logistics, and political independence",
        "access": "The Port of Tacoma, through traffic on I-5, and a porous defensive zone near Fife and Milton",
        "governance": "The Tacoma Ephorate, or the Five, divides authority among ground defense, harbor and naval forces, intelligence, logistics and infrastructure, and civil defense",
        "communities": "Citizens who earned status through military service, non-citizen residents, veterans, port workers, and metahuman families",
        "organizations": "Tacoma Ephorate, Black Helix, Empty Seats, and the port authorities",
        "connections": "International deepwater trade, Black Helix convoy security, and guarded commerce with Seattle along I-5",
        "description": "Tacoma is a de facto independent metahuman state organized around military service and control of the region's primary deepwater port. Seattle refuses formal recognition, but commerce and mutual dependence sustain an armed cessation rather than a peace treaty.",
        "label_coordinates": [
          -122.44,
          47.24
        ],
        "gm_notes": "First Ephor Sabine 'Breakwater' Okafor leads the Ephorate. Empty Seats includes peaceful and militant wings. Human Coalition Front remnants and the full political consequences of the Porter Way Bombing are GM-facing campaign material.",
        "audience": "player",
        "image_asset": "images/locations/region-tacoma.webp"
      },
      "geometry": {
        "type": "Polygon",
        "coordinates": [
          [
            [
              -122.63,
              47.39
            ],
            [
              -122.35,
              47.4
            ],
            [
              -122.23,
              47.28
            ],
            [
              -122.28,
              47.11
            ],
            [
              -122.55,
              47.1
            ],
            [
              -122.65,
              47.22
            ],
            [
              -122.63,
              47.39
            ]
          ]
        ]
      }
    },
    {
      "type": "Feature",
      "id": 104,
      "properties": {
        "name": "Silicon Wilds",
        "code": "RED // WILD NET",
        "category": "RECLAIMED TECHNOLOGY ZONE",
        "color": "#76e36f",
        "legend_order": 4,
        "status": "Eastside frontier of independent settlements, ruins, and salvage zones",
        "known_for": "Kirkland Downs, Badvue, Forgetown, Fool's End, overgrown campuses, AI remnants, and salvage",
        "access": "Lake Washington ferries through Meridian, I-405 and SR-520 corridors, or hazardous northern approaches",
        "governance": "No regional government; settlement councils, house compacts, entrepreneurs, and fortified local rulers govern their own territory",
        "communities": "Fishing and agricultural enclaves, casino workers, salvagers, frontier traders, manufacturers, and fortified settlers",
        "organizations": "Soundline Co-op, Crosswake Marine, Lucky Crossing, Badvue's house compact, and Marshal Tamsin Rook's Fool's End",
        "connections": "Meridian ferries feed the Eastside; I-405 links Kirkland Downs, Badvue, and Forgetown; SR-520 runs toward Fool's End; the frontier fades east into Cascadia",
        "description": "Strictly east of Lake Washington, the Silicon Wilds are a patchwork of surviving enclaves, abandoned towers, server vaults, salvage zones, frontier communities, and half-functioning systems. Mercer Island is culturally and operationally tied to the Wilds, though it lies outside the geographic boundary. The eastern edge has no hard line and gradually becomes Cascadia.",
        "label_coordinates": [
          -122.02,
          47.6
        ],
        "gm_notes": "Reports of 'Wessie' remain unresolved canon and should not be mapped as fact.",
        "audience": "player",
        "image_asset": "images/locations/region-silicon-wilds.webp"
      },
      "geometry": {
        "type": "Polygon",
        "coordinates": [
          [
            [
              -122.225,
              47.75
            ],
            [
              -121.96,
              47.79
            ],
            [
              -121.84,
              47.69
            ],
            [
              -121.87,
              47.47
            ],
            [
              -122.08,
              47.43
            ],
            [
              -122.19,
              47.5
            ],
            [
              -122.205,
              47.56
            ],
            [
              -122.195,
              47.64
            ],
            [
              -122.205,
              47.7
            ],
            [
              -122.225,
              47.75
            ]
          ]
        ]
      }
    },
    {
      "type": "Feature",
      "id": 105,
      "properties": {
        "name": "Cascade Approaches",
        "code": "CAS // FRONTIER",
        "category": "CASCADIAN TRANSITION ZONE",
        "color": "#f2b84b",
        "legend_order": 5,
        "status": "Western gateway into Cascadia; authority fades by degrees rather than at a border",
        "known_for": "First Nations stewardship, ordinary towns, independent settlements, locally maintained routes, and Resonance-altered ecology",
        "access": "Increasingly unreliable eastbound roads and locally maintained routes beyond the metropolitan corridor",
        "description": "The Cascade Approaches are the western gateway into Cascadia, not a synonym for Cascadia itself. Moving east, pavement degrades, maps and communications become less reliable, commercial networks thin out, infrastructure becomes locally maintained, metropolitan authority matters less, and forest and mountains increasingly dominate. GeoJSON can only sketch this transition; its north and south edges are not meaningful political boundaries.",
        "label_coordinates": [
          -121.55,
          47.58
        ],
        "audience": "player",
        "image_asset": "images/locations/region-cascade-approaches.webp",
        "governance": "No single regional government; First Nations exercise broad stewardship over ancestral territories alongside towns, settlements, homesteads, farms, and technical enclaves",
        "communities": "First Nations communities, small towns, independent settlements, homesteads, agricultural communities, technical enclaves, guides, and route maintainers",
        "connections": "Seattle and the Eastside fade west-to-east into the much larger cultural and geographic region of Cascadia",
        "gm_notes": "Resonance-altered plants and animals are normal features of Cascadia; strange does not automatically mean broken. The Adventure 3 pattern of unusual aggression, emergent techno-organic structures, organic/artificial integration without implants, and continuing internal glow after death is abnormal and remains a current mystery. Selka’s Snoqualmie home village lies north of North Bend, has roughly 300–500 people, and must remain unmapped/private."
      },
      "geometry": {
        "type": "Polygon",
        "coordinates": [
          [
            [
              -121.87,
              48.18
            ],
            [
              -121.4,
              48.24
            ],
            [
              -121.18,
              48.05
            ],
            [
              -121.17,
              47.12
            ],
            [
              -121.46,
              46.98
            ],
            [
              -121.86,
              47.1
            ],
            [
              -121.88,
              47.48
            ],
            [
              -121.84,
              47.7
            ],
            [
              -121.87,
              48.18
            ]
          ]
        ]
      }
    }
  ]
}
