{"type":"FeatureCollection","name":"Cybermancy player-safe Seattle districts","features":[{"type":"Feature","id":1,"properties":{"name":"Corporate Core","code":"SEA // CORE","category":"SEATTLE DISTRICT","color":"#38e7ee","legend_order":10,"status":"Council-controlled","known_for":"Arcologies, luxury towers, and curated civic space","access":"Credentialed transit and dense surveillance","description":"The pristine Seattle shown on corporate feeds: towers, luxury arcologies, corporate hotels, immaculate public spaces, security drones, and the surviving institutions of civic government."},"geometry":{"type":"Polygon","coordinates":[[[-122.358,47.616],[-122.338,47.618],[-122.327,47.603],[-122.348,47.591],[-122.358,47.616]]]}},{"type":"Feature","id":2,"properties":{"name":"Queen Anne","code":"SEA // CROWN","category":"SEATTLE DISTRICT","color":"#b991ff","legend_order":11,"status":"Executive residential zone","known_for":"Compounds, boutique arcologies, and the Space Needle","access":"Controlled hill approaches","description":"Historic houses have become executive compounds and boutique arcologies. The hill is easy to defend, and this is where wealthy Seattle tells itself that civilization survived."},"geometry":{"type":"Polygon","coordinates":[[[-122.365,47.648],[-122.342,47.650],[-122.338,47.618],[-122.358,47.616],[-122.375,47.625],[-122.365,47.648]]]}},{"type":"Feature","id":3,"properties":{"name":"Helios Corridor","code":"SEA // HELIOS","category":"SEATTLE DISTRICT","color":"#ff8a55","legend_order":12,"status":"Biotech and research enclave","known_for":"The five-building Helios campus","access":"Corporate streets and restricted laboratories","description":"A dense biomedical research corridor dominated by the five-building Helios campus and its elevated central platform. Its skyline has become inseparable from stories of Aurum Rex."},"geometry":{"type":"Polygon","coordinates":[[[-122.342,47.650],[-122.329,47.651],[-122.323,47.623],[-122.338,47.618],[-122.342,47.650]]]}},{"type":"Feature","id":4,"properties":{"name":"Meridian","code":"SEA // MERIDIAN","category":"SEATTLE DISTRICT — PROVISIONAL","color":"#e95fd5","legend_order":13,"status":"Independent cultural district","known_for":"Night markets, clubs, fixers, and street clinics","access":"Open streets with uneven municipal control","description":"Counterculture survives here as night markets, independent clubs, street clinics, runners, activists, and businesses serving people who prefer not to appear in corporate records. Its exact identity is still being defined."},"geometry":{"type":"Polygon","coordinates":[[[-122.323,47.623],[-122.290,47.625],[-122.290,47.590],[-122.327,47.603],[-122.323,47.623]]]}},{"type":"Feature","id":5,"properties":{"name":"Old City","code":"SEA // OLD CITY","category":"SEATTLE DISTRICT","color":"#d3a24f","legend_order":14,"status":"Dense mixed-control district","known_for":"Old infrastructure and underground markets","access":"Active by day; selectively lawless after dark","description":"Pre-Razz buildings, alleys, and surviving underground spaces support legitimate commerce by day and runners, smugglers, unlicensed cyberware, and information markets after dark."},"geometry":{"type":"Polygon","coordinates":[[[-122.348,47.591],[-122.327,47.603],[-122.315,47.588],[-122.346,47.579],[-122.348,47.591]]]}},{"type":"Feature","id":6,"properties":{"name":"Ballard Reach","code":"SEA // REACH","category":"SEATTLE DISTRICT","color":"#57b5dc","legend_order":15,"status":"Maritime semi-autonomy","known_for":"Repair yards, fisheries, smugglers, and Currentborn","access":"Water routes and guarded industrial roads","description":"Boat repair, fisheries, small shipyards, smugglers, and Currentborn communities give Ballard enough maritime capacity to maintain unusual independence from the corporate core."},"geometry":{"type":"Polygon","coordinates":[[[-122.414,47.695],[-122.370,47.695],[-122.370,47.675],[-122.365,47.648],[-122.390,47.640],[-122.414,47.655],[-122.414,47.695]]]}},{"type":"Feature","id":7,"properties":{"name":"Fremont Works","code":"SEA // WORKS","category":"SEATTLE DISTRICT","color":"#80e291","legend_order":16,"status":"Maker territory","known_for":"Riggers, salvage engineers, art, and workshops","access":"Independent streets north of the canal","description":"Small workshops, Riggers, salvage engineers, artists, and eccentric institutions turned the neighborhood's cultivated weirdness into practical resistance to corporate homogenization."},"geometry":{"type":"Polygon","coordinates":[[[-122.370,47.675],[-122.335,47.675],[-122.329,47.651],[-122.342,47.650],[-122.365,47.648],[-122.370,47.675]]]}},{"type":"Feature","id":8,"properties":{"name":"University Enclave","code":"SEA // U-ENCLAVE","category":"SEATTLE DISTRICT","color":"#7f91ff","legend_order":17,"status":"Corporate academic territory","known_for":"Research, sealed laboratories, and controlled knowledge","access":"Public campus edges; restricted research interior","description":"The University of Washington still looks enough like a university to use the name, but corporate priorities control its research and intellectual property. Sealed pre-Razz laboratories remain beneath it."},"geometry":{"type":"Polygon","coordinates":[[[-122.329,47.681],[-122.286,47.682],[-122.280,47.651],[-122.305,47.641],[-122.329,47.651],[-122.329,47.681]]]}},{"type":"Feature","id":9,"properties":{"name":"Working Seattle","code":"SEA // WORKING","category":"SEATTLE DISTRICT","color":"#a7d45f","legend_order":18,"status":"Municipal and neighborhood control","known_for":"Dense communities and the labor that keeps Seattle alive","access":"Open transit with unreliable infrastructure","description":"Mixed communities of immigrants, metahumans, municipal workers, and families keep the city functioning without receiving corporate-core investment. Social cohesion is strong; infrastructure is not."},"geometry":{"type":"Polygon","coordinates":[[[-122.315,47.588],[-122.290,47.590],[-122.250,47.575],[-122.250,47.510],[-122.304,47.540],[-122.315,47.588]]]}},{"type":"Feature","id":10,"properties":{"name":"Bombshell","code":"SEA // BOMBSHELL","category":"SPECIAL HAZARD ZONE","color":"#ff5b60","legend_order":19,"status":"Scarred and incompletely governed","known_for":"War ruins, warehouses, rail yards, and exclusion blocks","access":"Usable corridors separated by sealed ruins","description":"The industrial south still bears the physical scars of the Black Helix–Dominion war. Functional warehouses and rail lines stand beside shattered exclusion zones and the fortified Boeing Field complex."},"geometry":{"type":"Polygon","coordinates":[[[-122.346,47.579],[-122.315,47.588],[-122.304,47.540],[-122.325,47.490],[-122.360,47.520],[-122.346,47.579]]]}},{"type":"Feature","id":11,"properties":{"name":"West Seattle","code":"SEA // WEST","category":"SEMI-AUTONOMOUS ENCLAVE","color":"#45c4a0","legend_order":20,"status":"Self-reliant peninsula","known_for":"Neighborhood government and ferry dependence","access":"Ferries and limited overland approaches","description":"The loss and degradation of bridge infrastructure made West Seattle almost a separate town. Neighborhood associations and local defense groups carry more practical authority than City Hall."},"geometry":{"type":"Polygon","coordinates":[[[-122.420,47.590],[-122.365,47.590],[-122.360,47.520],[-122.390,47.490],[-122.430,47.515],[-122.420,47.590]]]}}]}