{
  "type": "FeatureCollection",
  "name": "Cybermancy player-safe Seattle districts",
  "features": [
    {
      "type": "Feature",
      "id": 1,
      "properties": {
        "name": "Corporate Core",
        "code": "SEA // CORE",
        "category": "SEATTLE DISTRICT",
        "color": "#38e7ee",
        "legend_order": 10,
        "status": "Materially comfortable corporate center under pervasive credentialing and surveillance",
        "known_for": "Flagship offices, high-end public space, employment-linked housing, transit, nightlife, and overlapping corporate security",
        "access": "Public pedestrian access with checkpoints, identity systems, traffic monitoring, and dense surveillance",
        "description": "The Corporate Core is the clean, safe, materially comfortable Seattle that corporate employment can buy. There is no enclosing wall and pedestrians can enter; unfamiliarity alone does not trigger intervention. Control instead comes through checkpoints, identity systems, surveillance, traffic monitoring, credentialing, employment-linked housing, status pressure, and reciprocal security arrangements that make the district highly desirable while keeping daily life legible to institutions.",
        "label_coordinates": [
          -122.343,
          47.612
        ],
        "audience": "player",
        "image_asset": "images/locations/district-corporate-core.webp",
        "governance": "Seattle civic authority operates inside a dense web of reciprocal corporate-security and credentialing arrangements",
        "communities": "Corporate employees, service workers, residents in employment-linked housing, visitors, commuters, and municipal staff",
        "organizations": "Major megacorporations, corporate-security contractors, civic agencies, hospitality and transit operators",
        "connections": "Puget Sound waterfront, Mercer transit links, I-5, Meridian, Queen Anne, and Old City"
      },
      "geometry": {
        "type": "Polygon",
        "coordinates": [
          [
            [
              -122.357,
              47.624
            ],
            [
              -122.336,
              47.625
            ],
            [
              -122.329,
              47.62
            ],
            [
              -122.326,
              47.602
            ],
            [
              -122.336,
              47.601
            ],
            [
              -122.356,
              47.601
            ],
            [
              -122.357,
              47.624
            ]
          ]
        ]
      }
    },
    {
      "type": "Feature",
      "id": 2,
      "properties": {
        "name": "Queen Anne",
        "code": "SEA // CROWN",
        "category": "SEATTLE DISTRICT",
        "color": "#b991ff",
        "legend_order": 11,
        "status": "Primary enclave of Seattle’s post-Resonance wealthy elite",
        "known_for": "Large private compounds, elegant residences, private schools, elite clubs, fine dining, golf, yacht culture, charities, and discreet security",
        "access": "Public roads remain open, but outsiders are conspicuous under overlapping private-security observation",
        "description": "Queen Anne is Seattle’s primary enclave of post-Resonance wealth: manicured private compounds and roughly one-to-four-acre estates where geography permits, elegant apartments toward the south, private schools, clubs, fine dining, golf, yacht culture, charities, and elaborate social rituals. Public roads are open, but overlapping security systems make outsiders continuously visible. Vaelis Thorne, a powerful Drow socialite and elite hostess, is one of the district’s prominent social figures.",
        "label_coordinates": [
          -122.38,
          47.648
        ],
        "audience": "player",
        "image_asset": "images/locations/district-queen-anne.webp",
        "governance": "Seattle jurisdiction remains in force while estate associations, private institutions, and contracted security shape daily life",
        "communities": "Wealthy families, executives, elite professionals, domestic and service workers, private-school communities, club members, and marina residents",
        "organizations": "Private schools, elite clubs, charities, marina organizations, estate security networks, and Dominion subcontract security",
        "connections": "Mercer and the Corporate Core to the south, Salmon Bay and Ballard Reach to the north, Puget Sound to the west, and Lake Union to the east"
      },
      "geometry": {
        "type": "Polygon",
        "coordinates": [
          [
            [
              -122.438,
              47.662
            ],
            [
              -122.405,
              47.676
            ],
            [
              -122.365,
              47.674
            ],
            [
              -122.332,
              47.655
            ],
            [
              -122.334,
              47.624
            ],
            [
              -122.385,
              47.624
            ],
            [
              -122.422,
              47.637
            ],
            [
              -122.438,
              47.662
            ]
          ]
        ]
      }
    },
    {
      "type": "Feature",
      "id": 3,
      "properties": {
        "name": "Helios Corridor",
        "code": "SEA // HELIOS",
        "category": "SEATTLE DISTRICT",
        "color": "#ff8a55",
        "legend_order": 12,
        "status": "Helios-dominated corporate habitat and biomedical enclave",
        "known_for": "Corporate housing, hospitals, biotech research, regenerative medicine, clinics, laboratories, and employee services",
        "access": "Public-facing clinics and commercial facilities mixed with credentialed Helios residential, research, and logistics space",
        "description": "Helios Corridor is a property-defined corporate habitat rather than a conventional neighborhood. Helios Biotech requires its employees to live within corporate buildings and folds work, housing, healthcare, transportation, food, recreation, professional development, social life, and security into one attractive and highly functional ecosystem. The surrounding corridor of hospitals, clinics, biotech startups, contract laboratories, suppliers, restaurants, training facilities, and corporate housing is either Helios-owned or economically dependent on it. Dr. Aurelia Vale is the public head of Helios Biotech.",
        "label_coordinates": [
          -122.335,
          47.637
        ],
        "audience": "player",
        "image_asset": "images/locations/district-helios-corridor.webp",
        "governance": "Seattle retains technical jurisdiction, but Helios Biotech dominates property, services, security, and access and keeps municipal authorities at arm’s length",
        "communities": "Helios employees and families, clinicians, researchers, contract-lab staff, biotech workers, suppliers, trainees, and service workers",
        "organizations": "Helios Biotech, hospitals, specialty clinics, biotech startups, contract laboratories, medical suppliers, research contractors, and clinical logistics firms",
        "connections": "Property enclaves along the west, south, and east shores of Lake Union, including structures on or over the water; no Helios district frontage on the north shore",
        "gm_notes": "Dr. Aurelia Vale is Aurum Rex, the Dragon, one of the principal Cabal powers. Helios Biotech is connected to Project Chimera. These facts are GM-only and must not appear in player-facing data."
      },
      "geometry": {
        "type": "MultiPolygon",
        "coordinates": [
          [
            [
              [
                -122.353,
                47.625
              ],
              [
                -122.342,
                47.625
              ],
              [
                -122.342,
                47.653
              ],
              [
                -122.352,
                47.653
              ],
              [
                -122.353,
                47.625
              ]
            ]
          ],
          [
            [
              [
                -122.345,
                47.621
              ],
              [
                -122.326,
                47.621
              ],
              [
                -122.326,
                47.63
              ],
              [
                -122.345,
                47.63
              ],
              [
                -122.345,
                47.621
              ]
            ]
          ],
          [
            [
              [
                -122.329,
                47.625
              ],
              [
                -122.319,
                47.626
              ],
              [
                -122.319,
                47.653
              ],
              [
                -122.328,
                47.653
              ],
              [
                -122.329,
                47.625
              ]
            ]
          ],
          [
            [
              [
                -122.339,
                47.636
              ],
              [
                -122.331,
                47.636
              ],
              [
                -122.331,
                47.645
              ],
              [
                -122.339,
                47.645
              ],
              [
                -122.339,
                47.636
              ]
            ]
          ]
        ]
      }
    },
    {
      "type": "Feature",
      "id": 4,
      "properties": {
        "name": "Meridian",
        "code": "SEA // MERIDIAN",
        "category": "SEATTLE DISTRICT",
        "color": "#e95fd5",
        "legend_order": 13,
        "status": "Professional interface for Seattle's gray and black economies",
        "known_for": "Lake Washington ferries, the Seam, salvage markets, fixers, and expedition outfitters",
        "access": "I-5 on the west, Lake Washington on the east, and guarded ferry terminals",
        "governance": "Nominal Seattle authority layered over market customs, broker networks, and venue-specific neutrality",
        "communities": "Traders, runners, ferry crews, salvage brokers, information dealers, and expedition teams",
        "organizations": "Madison Terminal, Leschi Terminal, Afterimage, and the Third Door",
        "connections": "Corporate Core to Meridian to Lake Washington ferries to the Silicon Wilds; returning salvage moves toward Gasworks and corporate buyers",
        "description": "Between I-5 and Lake Washington, from the ruined I-90 corridor north to ruined SR-520, Meridian is Seattle's principal staging and trading interface with the Silicon Wilds. Information is currency here: ferries, salvage markets, outfitters, fixers, and brokers move people, rumors, and recovered technology between the city and the Eastside frontier.",
        "label_coordinates": [
          -122.298,
          47.616
        ],
        "gm_notes": "Afterimage is not neutral ground. The Third Door is neutral runner ground overseen by Etta 'Switch' Mercer, Garran 'Rampart' Okoye, and Ilyra 'Copper' Venn. Admission mechanics remain unresolved canon.",
        "audience": "player",
        "image_asset": "images/locations/district-meridian.webp"
      },
      "geometry": {
        "type": "Polygon",
        "coordinates": [
          [
            [
              -122.323,
              47.64
            ],
            [
              -122.275,
              47.64
            ],
            [
              -122.27,
              47.59
            ],
            [
              -122.315,
              47.59
            ],
            [
              -122.327,
              47.603
            ],
            [
              -122.323,
              47.623
            ],
            [
              -122.323,
              47.64
            ]
          ]
        ]
      }
    },
    {
      "type": "Feature",
      "id": 5,
      "properties": {
        "name": "Old City",
        "code": "SEA // OLD CITY",
        "category": "SEATTLE DISTRICT",
        "color": "#d3a24f",
        "legend_order": 14,
        "status": "Working-class district held together by practical continuity and benign neglect",
        "known_for": "Genuine older Seattle buildings, multigenerational neighborhoods, inexpensive commerce, shelters, utility infrastructure, and pragmatic tolerance",
        "access": "Open city streets with uneven municipal attention and few formal barriers",
        "description": "Old City is the common street name for a broad swath of older Seattle that survived largely because nobody cared enough to remake it. Its buildings and streets are genuinely old rather than a recreated historic district. The defining attitude is practical continuity: residents tend to meet metahumans, awakened people, cybernetics, corporations, outsiders, and strange post-Resonance events with pragmatic indifference rather than ideology.",
        "label_coordinates": [
          -122.343,
          47.585
        ],
        "audience": "player",
        "image_asset": "images/locations/district-old-city.webp",
        "governance": "Seattle municipal government technically governs the district but exercises relatively little day-to-day influence",
        "communities": "Retirees, service workers, merchants, clergy, artists, low-level corporate workers, unhoused residents, and newcomers",
        "connections": "Yesler and the Corporate Core to the north, S Spokane to the south, the Duwamish Waterway to the west, and I-5 to the east",
        "gm_notes": "The Adventure 1 underground settlement beneath Old City was relocated intact by a Prometheus Shard. Its destination remains unknown. Do not imply that abandoned tunnels necessarily contain treasure, contamination, a replacement settlement, or any other resolved explanation."
      },
      "geometry": {
        "type": "Polygon",
        "coordinates": [
          [
            [
              -122.365,
              47.602
            ],
            [
              -122.326,
              47.602
            ],
            [
              -122.326,
              47.572
            ],
            [
              -122.356,
              47.566
            ],
            [
              -122.369,
              47.579
            ],
            [
              -122.365,
              47.602
            ]
          ]
        ]
      }
    },
    {
      "type": "Feature",
      "id": 6,
      "properties": {
        "name": "Ballard Reach",
        "code": "SEA // REACH",
        "category": "SEATTLE DISTRICT",
        "color": "#57b5dc",
        "legend_order": 15,
        "status": "Maritime district balancing independence with practical mutual dependence",
        "known_for": "Fishing, salvage, boat repair, small shipyards, floating structures, smuggling, markets, marine trades, and independent manufacturing",
        "access": "Water routes, industrial roads, docks, floating walkways, and neighborhood streets",
        "description": "Ballard Reach is defined by the sea, freedom, maritime competence, independence, and the practical mutual dependence required to survive on the water. Roughly half the district is conventional land neighborhoods and industrial waterfront and half is docks, floating structures, and water-based settlement. Persistent cultural friction with Queen Anne is most visible where mega-yacht culture meets Ballard boats, but there is no organized conflict at campaign start.",
        "label_coordinates": [
          -122.39,
          47.687
        ],
        "audience": "player",
        "image_asset": "images/locations/district-ballard-reach.webp",
        "governance": "The informal Captains’ Council handles practical disputes and common concerns without formal elections or municipal-style statute",
        "communities": "Fishing crews, salvagers, boatbuilders, marine mechanics, traders, smugglers, floating-house residents, and other maritime families",
        "organizations": "Captains’ Council, independent boatyards, repair shops, markets, small shipyards, and marine trades",
        "connections": "Salmon Bay separates Ballard Reach from Queen Anne; the eastern boundary with Gasworks is intentionally fuzzy around roughly 8th Avenue NW"
      },
      "geometry": {
        "type": "Polygon",
        "coordinates": [
          [
            [
              -122.418,
              47.668
            ],
            [
              -122.365,
              47.667
            ],
            [
              -122.36,
              47.685
            ],
            [
              -122.363,
              47.708
            ],
            [
              -122.39,
              47.717
            ],
            [
              -122.414,
              47.706
            ],
            [
              -122.423,
              47.687
            ],
            [
              -122.418,
              47.668
            ]
          ]
        ]
      }
    },
    {
      "type": "Feature",
      "id": 7,
      "properties": {
        "name": "Gasworks",
        "code": "SEA // GASWORKS",
        "category": "SEATTLE DISTRICT",
        "color": "#80e291",
        "legend_order": 16,
        "status": "Productive anarchy under workshop custom",
        "known_for": "Prototyping, fabrication, salvage engineering, art, and experimental technology",
        "access": "North of the Lake Washington Ship Canal between roughly 8th Avenue NW and the Ship Canal Bridge",
        "governance": "Major decisions move through committees, workshop consensus, custom, reputation, and technical credibility. Chief Engineer Imani Calder chairs the council and serves as the de facto public face, but is not a mayor or centralized executive.",
        "communities": "Riggers, engineers, artists, inventors, salvage crews, apprentices, and small workshops",
        "organizations": "Greater Seattle Workshop Exchange (Gasworks), the Foundry, neighborhood workshops, manufactories, and Eriador, Inc.",
        "connections": "Meridian supplies Eastside salvage; Gasworks prototypes move to Forgetown for mass production",
        "description": "Gasworks is a maker district built on productive anarchy. Small workshops, manufactories, and the Foundry turn salvage into practical machines, art, prototypes, and experimental technology. The Greater Seattle Workshop Exchange keeps technical exchange unusually open, while reputation, workshop custom, and committee consensus substitute for centralized government. Chief Engineer Imani Calder chairs the council and is the district’s most visible spokesperson.",
        "label_coordinates": [
          -122.347,
          47.661
        ],
        "gm_notes": "Rumors concerning structures or inhabitants beneath Gas Works Park remain unresolved. The Foundry will blacklist members who disguise purpose-built weapons as dual-use projects.",
        "events": "AQRE/The Works is the district's annual exposition and induction festival.",
        "audience": "player",
        "image_asset": "images/locations/district-gasworks.webp"
      },
      "geometry": {
        "type": "Polygon",
        "coordinates": [
          [
            [
              -122.37,
              47.675
            ],
            [
              -122.335,
              47.675
            ],
            [
              -122.329,
              47.651
            ],
            [
              -122.342,
              47.65
            ],
            [
              -122.365,
              47.648
            ],
            [
              -122.37,
              47.675
            ]
          ]
        ]
      }
    },
    {
      "type": "Feature",
      "id": 8,
      "properties": {
        "name": "University Enclave",
        "code": "SEA // U-ENCLAVE",
        "category": "SEATTLE DISTRICT",
        "color": "#7f91ff",
        "legend_order": 17,
        "status": "Traditional university governed through the corporate UW Compact",
        "known_for": "Corporate research domains, independent humanities, and two expended Prometheus Shards",
        "access": "Public academic spaces; controlled laboratories and Dominion-secured perimeter zones",
        "governance": "University administration and faculty governance constrained by the seven-party UW Compact",
        "communities": "Students, faculty, researchers, corporate scholars, and underfunded independent humanities departments",
        "organizations": "Dominion, Neuracore, Helion, OmniTrine, Verdant, AstraVail, and ChimeraGene",
        "connections": "A major recruitment and research nexus linking Seattle's corporations, civic institutions, and technical labor market",
        "description": "The University of Washington still retains recognizable academic governance, but seven corporations divide its most valuable research domains through the UW Compact. Public campus life continues beside controlled laboratories, corporate scholarship pipelines, and independent humanities departments that survive with little funding.",
        "label_coordinates": [
          -122.305,
          47.663
        ],
        "gm_notes": "The UW Compact negotiations helped create the Council, although only five of the seven Compact signatories later joined it. Adyton is not on campus and its location remains unknown. The KBDJ extraction details remain unresolved.",
        "audience": "player",
        "image_asset": "images/locations/district-university-enclave.webp"
      },
      "geometry": {
        "type": "Polygon",
        "coordinates": [
          [
            [
              -122.329,
              47.681
            ],
            [
              -122.286,
              47.682
            ],
            [
              -122.28,
              47.651
            ],
            [
              -122.305,
              47.641
            ],
            [
              -122.329,
              47.651
            ],
            [
              -122.329,
              47.681
            ]
          ]
        ]
      }
    },
    {
      "type": "Feature",
      "id": 9,
      "properties": {
        "name": "The South End",
        "code": "SEA // SOUTH END",
        "category": "SEATTLE DISTRICT",
        "color": "#a7d45f",
        "legend_order": 18,
        "status": "Ordinary municipal district sustained by neighborhood institutions",
        "known_for": "Affordable housing, families, schools, churches, small businesses, and essential labor",
        "access": "South of I-90 and east of I-5, with porous edges and unreliable infrastructure",
        "governance": "Seattle municipal government without a single district ruler; practical authority is distributed among neighborhood and labor groups",
        "communities": "Immigrant and metahuman families, municipal workers, tradespeople, congregations, and small businesses",
        "organizations": "The Yardmen, Southline Union, and Porchlight Boys",
        "connections": "Residential and labor communities link central Seattle to Bombshell and the southern approaches",
        "description": "The South End is run-down but functioning: a broad working district where families, schools, churches, trades, and small businesses keep ordinary life going without Corporate Core investment. Its geographic and social boundary with Bombshell is porous rather than clean.",
        "label_coordinates": [
          -122.278,
          47.551
        ],
        "audience": "player",
        "image_asset": "images/locations/district-the-south-end.webp"
      },
      "geometry": {
        "type": "Polygon",
        "coordinates": [
          [
            [
              -122.315,
              47.588
            ],
            [
              -122.29,
              47.59
            ],
            [
              -122.25,
              47.575
            ],
            [
              -122.25,
              47.51
            ],
            [
              -122.31,
              47.49
            ],
            [
              -122.295,
              47.54
            ],
            [
              -122.315,
              47.588
            ]
          ]
        ]
      }
    },
    {
      "type": "Feature",
      "id": 10,
      "properties": {
        "name": "Bombshell",
        "code": "SEA // BOMBSHELL",
        "category": "SPECIAL HAZARD ZONE",
        "color": "#ff5b60",
        "legend_order": 19,
        "status": "Inhabited war ruin with weak municipal services",
        "known_for": "SoDo and Duwamish ruins, warehouses, rail yards, mutual aid, gangs, and Boeing Field",
        "access": "Usable industrial corridors and neighborhood streets separated by exclusion blocks and damaged infrastructure",
        "governance": "Fragmented municipal presence, neighborhood rebuilding groups, protection networks, gangs, and corporate intermediaries",
        "communities": "Long-term residents, displaced families, industrial workers, scavengers, metahuman communities, and mutual-aid crews",
        "organizations": "Bombshell Mutual Works, Church of the Shattered Glass, the Cinders, Copperheads, and Rail Dogs",
        "connections": "Industrial and rail corridors connect the Corporate Core and South End to Boeing Field and Tacoma",
        "description": "Bombshell spans the SoDo, Georgetown, Duwamish, and southeastern war zone. It is both ruin and inhabited district: functional warehouses, rail lines, homes, churches, and mutual-aid projects stand beside shattered exclusion blocks and the fortified Boeing Field complex.",
        "label_coordinates": [
          -122.327,
          47.54
        ],
        "gm_notes": "Auntie Lee Varga leads Bombshell Mutual Works. Sister Rhea Calder sincerely worships Abraxas through the Church of the Shattered Glass. Corporate exploitation generally operates through intermediaries.",
        "audience": "player",
        "image_asset": "images/locations/district-bombshell.webp"
      },
      "geometry": {
        "type": "Polygon",
        "coordinates": [
          [
            [
              -122.346,
              47.579
            ],
            [
              -122.315,
              47.588
            ],
            [
              -122.295,
              47.54
            ],
            [
              -122.31,
              47.49
            ],
            [
              -122.36,
              47.52
            ],
            [
              -122.346,
              47.579
            ]
          ]
        ]
      }
    },
    {
      "type": "Feature",
      "id": 11,
      "properties": {
        "name": "West Seattle",
        "code": "SEA // WEST",
        "category": "SEMI-AUTONOMOUS ENCLAVE",
        "color": "#45c4a0",
        "legend_order": 20,
        "status": "Semi-autonomous Seattle district under a civic compact",
        "known_for": "Neighborhood government, local defense, food resilience, controlled bridges, and ferries",
        "access": "West Seattle High Bridge, 1st Avenue South Bridge, ferries, and guarded checkpoints",
        "governance": "West Seattle Civic Compact led by the Compact Council and Council Steward Miriam 'Miri' Hale",
        "communities": "Neighborhood associations, fishing and food cooperatives, families, bridge crews, and volunteer defenders",
        "organizations": "Compact Council, Civic Guard, Town Square, Open Signal Coalition, and Vesper Syndicate",
        "connections": "Surviving bridges and ferries connect the peninsula to central and southern Seattle; local fishing compacts support food security",
        "description": "West Seattle remains formally part of Seattle but operates with unusual autonomy under the West Seattle Civic Compact. Controlled bridges, neighborhood government, the Civic Guard, ferry links, and local food systems make the peninsula resilient and politically distinct.",
        "label_coordinates": [
          -122.393,
          47.545
        ],
        "gm_notes": "Commander Tomas 'Tom' Reyes leads the Civic Guard. The Open Signal Coalition is publicly independent but covertly supported by Vesper Syndicate as part of its psychoactive neurofeed effort.",
        "audience": "player",
        "image_asset": "images/locations/district-west-seattle.webp"
      },
      "geometry": {
        "type": "Polygon",
        "coordinates": [
          [
            [
              -122.42,
              47.59
            ],
            [
              -122.365,
              47.59
            ],
            [
              -122.36,
              47.52
            ],
            [
              -122.39,
              47.49
            ],
            [
              -122.43,
              47.515
            ],
            [
              -122.42,
              47.59
            ]
          ]
        ]
      }
    }
  ]
}
